{
  "type": "FeatureCollection",
  "features": [
    {
      "type": "Feature",
      "properties": {
        "norad_id": 34875,
        "name": "COSMOS 2251 DEB",
        "group": "cosmos-2251-debris",
        "lat": 26.737589588152137,
        "lon": 156.99256750068295,
        "alt_km": 732.7824354844533,
        "timestamp": "2025-12-17T19:34:08.433034+00:00",
        "meta_object_name": "COSMOS 2251 DEB",
        "meta_object_id": "1993-036ACN",
        "meta_epoch": "2025-12-17T05:20:39.031872",
        "meta_mean_motion": 14.48941246,
        "meta_eccentricity": 0.00162186,
        "meta_inclination": 74.0434,
        "meta_ra_of_asc_node": 149.8155,
        "meta_arg_of_pericenter": 273.2302,
        "meta_mean_anomaly": 264.2172,
        "meta_ephemeris_type": 0,
        "meta_classification_type": "U",
        "meta_norad_cat_id": 34875,
        "meta_element_set_no": 999,
        "meta_rev_at_epoch": 87820,
        "meta_bstar": 0.00035804654,
        "meta_mean_motion_dot": 1.331e-05,
        "meta_mean_motion_ddot": 0,
        "tle_line1": "1 34875U 93036ACN 25351.22267398  .00001331  00000+0  35805-3 0  9994",
        "tle_line2": "2 34875  74.0434 149.8155 0016218 273.2302 264.2172 14.48941246878203"
      },
      "geometry": {
        "type": "Point",
        "coordinates": [
          156.99256750068295,
          26.737589588152137
        ]
      }
    },
    {
      "type": "Feature",
      "properties": {
        "norad_id": 34878,
        "name": "COSMOS 2251 DEB",
        "group": "cosmos-2251-debris",
        "lat": 43.93754242065363,
        "lon": 55.359495124106864,
        "alt_km": 791.0728034057047,
        "timestamp": "2025-12-17T19:34:08.433044+00:00",
        "meta_object_name": "COSMOS 2251 DEB",
        "meta_object_id": "1993-036ACR",
        "meta_epoch": "2025-12-15T21:48:13.370976",
        "meta_mean_motion": 13.44195012,
        "meta_eccentricity": 0.04354662,
        "meta_inclination": 73.9648,
        "meta_ra_of_asc_node": 42.2959,
        "meta_arg_of_pericenter": 25.2,
        "meta_mean_anomaly": 154.8462,
        "meta_ephemeris_type": 0,
        "meta_classification_type": "U",
        "meta_norad_cat_id": 34878,
        "meta_element_set_no": 999,
        "meta_rev_at_epoch": 81315,
        "meta_bstar": 0.00059672813,
        "meta_mean_motion_dot": 5.92e-06,
        "meta_mean_motion_ddot": 0,
        "tle_line1": "1 34878U 93036ACR 25349.90848809  .00000592  00000+0  59673-3 0  9998",
        "tle_line2": "2 34878  73.9648  42.2959 0435466  25.2000 154.8462 13.44195012813155"
      },
      "geometry": {
        "type": "Point",
        "coordinates": [
          55.359495124106864,
          43.93754242065363
        ]
      }
    },
    {
      "type": "Feature",
      "properties": {
        "norad_id": 34882,
        "name": "COSMOS 2251 DEB",
        "group": "cosmos-2251-debris",
        "lat": -20.949324034915943,
        "lon": 42.176392576911155,
        "alt_km": 737.5617412709498,
        "timestamp": "2025-12-17T19:34:08.433054+00:00",
        "meta_object_name": "COSMOS 2251 DEB",
        "meta_object_id": "1993-036ACV",
        "meta_epoch": "2025-12-16T08:08:53.829024",
        "meta_mean_motion": 14.61604342,
        "meta_eccentricity": 0.00829872,
        "meta_inclination": 74.0464,
        "meta_ra_of_asc_node": 218.7097,
        "meta_arg_of_pericenter": 344.8064,
        "meta_mean_anomaly": 15.061,
        "meta_ephemeris_type": 0,
        "meta_classification_type": "U",
        "meta_norad_cat_id": 34882,
        "meta_element_set_no": 999,
        "meta_rev_at_epoch": 88577,
        "meta_bstar": 0.00014326394,
        "meta_mean_motion_dot": 7.15e-06,
        "meta_mean_motion_ddot": 0,
        "tle_line1": "1 34882U 93036ACV 25350.33951191  .00000715  00000+0  14326-3 0  9994",
        "tle_line2": "2 34882  74.0464 218.7097 0082987 344.8064  15.0610 14.61604342885778"
      },
      "geometry": {
        "type": "Point",
        "coordinates": [
          42.176392576911155,
          -20.949324034915943
        ]
      }
    },
    {
      "type": "Feature",
      "properties": {
        "norad_id": 34883,
        "name": "COSMOS 2251 DEB",
        "group": "cosmos-2251-debris",
        "lat": 62.01795731498918,
        "lon": 85.47095846826325,
        "alt_km": 780.5087311108055,
        "timestamp": "2025-12-17T19:34:08.433064+00:00",
        "meta_object_name": "COSMOS 2251 DEB",
        "meta_object_id": "1993-036ACW",
        "meta_epoch": "2025-12-16T03:33:44.508384",
        "meta_mean_motion": 14.51615138,
        "meta_eccentricity": 0.00951919,
        "meta_inclination": 74.1965,
        "meta_ra_of_asc_node": 56.3649,
        "meta_arg_of_pericenter": 240.9605,
        "meta_mean_anomaly": 118.1996,
        "meta_ephemeris_type": 0,
        "meta_classification_type": "U",
        "meta_norad_cat_id": 34883,
        "meta_element_set_no": 999,
        "meta_rev_at_epoch": 86489,
        "meta_bstar": 0.0030222545,
        "meta_mean_motion_dot": 0.00012841,
        "meta_mean_motion_ddot": 0,
        "tle_line1": "1 34883U 93036ACW 25350.14843181  .00012841  00000+0  30223-2 0  9999",
        "tle_line2": "2 34883  74.1965  56.3649 0095191 240.9605 118.1996 14.51615138864899"
      },
      "geometry": {
        "type": "Point",
        "coordinates": [
          85.47095846826325,
          62.01795731498918
        ]
      }
    },
    {
      "type": "Feature",
      "properties": {
        "norad_id": 34884,
        "name": "COSMOS 2251 DEB",
        "group": "cosmos-2251-debris",
        "lat": -13.935118805501748,
        "lon": 42.49433952427743,
        "alt_km": 600.75687727475,
        "timestamp": "2025-12-17T19:34:08.433074+00:00",
        "meta_object_name": "COSMOS 2251 DEB",
        "meta_object_id": "1993-036ACX",
        "meta_epoch": "2025-12-17T07:05:29.294880",
        "meta_mean_motion": 14.90275523,
        "meta_eccentricity": 0.00025374,
        "meta_inclination": 74.0178,
        "meta_ra_of_asc_node": 47.6137,
        "meta_arg_of_pericenter": 58.5651,
        "meta_mean_anomaly": 18.986,
        "meta_ephemeris_type": 0,
        "meta_classification_type": "U",
        "meta_norad_cat_id": 34884,
        "meta_element_set_no": 999,
        "meta_rev_at_epoch": 87873,
        "meta_bstar": 0.0018198677,
        "meta_mean_motion_dot": 0.00017684,
        "meta_mean_motion_ddot": 0,
        "tle_line1": "1 34884U 93036ACX 25351.29547795  .00017684  00000+0  18199-2 0  9997",
        "tle_line2": "2 34884  74.0178  47.6137 0002537  58.5651  18.9860 14.90275523878734"
      },
      "geometry": {
        "type": "Point",
        "coordinates": [
          42.49433952427743,
          -13.935118805501748
        ]
      }
    },
    {
      "type": "Feature",
      "properties": {
        "norad_id": 34885,
        "name": "COSMOS 2251 DEB",
        "group": "cosmos-2251-debris",
        "lat": -61.03720256076017,
        "lon": 24.624581583450603,
        "alt_km": 717.0195436606318,
        "timestamp": "2025-12-17T19:34:08.433084+00:00",
        "meta_object_name": "COSMOS 2251 DEB",
        "meta_object_id": "1993-036ACY",
        "meta_epoch": "2025-12-16T23:07:54.744384",
        "meta_mean_motion": 14.51524925,
        "meta_eccentricity": 0.00151145,
        "meta_inclination": 74.0298,
        "meta_ra_of_asc_node": 175.0683,
        "meta_arg_of_pericenter": 260.487,
        "meta_mean_anomaly": 217.0768,
        "meta_ephemeris_type": 0,
        "meta_classification_type": "U",
        "meta_norad_cat_id": 34885,
        "meta_element_set_no": 999,
        "meta_rev_at_epoch": 87540,
        "meta_bstar": 0.00052941132,
        "meta_mean_motion_dot": 2.093e-05,
        "meta_mean_motion_ddot": 0,
        "tle_line1": "1 34885U 93036ACY 25350.96382806  .00002093  00000+0  52941-3 0  9993",
        "tle_line2": "2 34885  74.0298 175.0683 0015114 260.4870 217.0768 14.51524925875402"
      },
      "geometry": {
        "type": "Point",
        "coordinates": [
          24.624581583450603,
          -61.03720256076017
        ]
      }
    },
    {
      "type": "Feature",
      "properties": {
        "norad_id": 34886,
        "name": "COSMOS 2251 DEB",
        "group": "cosmos-2251-debris",
        "lat": 49.65154131727477,
        "lon": -29.82356311108427,
        "alt_km": 457.7855845885715,
        "timestamp": "2025-12-17T19:34:08.433094+00:00",
        "meta_object_name": "COSMOS 2251 DEB",
        "meta_object_id": "1993-036ACZ",
        "meta_epoch": "2025-12-13T21:25:05.379168",
        "meta_mean_motion": 15.38859949,
        "meta_eccentricity": 0.00306549,
        "meta_inclination": 73.9501,
        "meta_ra_of_asc_node": 178.4925,
        "meta_arg_of_pericenter": 1.8054,
        "meta_mean_anomaly": 358.3257,
        "meta_ephemeris_type": 0,
        "meta_classification_type": "U",
        "meta_norad_cat_id": 34886,
        "meta_element_set_no": 999,
        "meta_rev_at_epoch": 63016,
        "meta_bstar": 0.0017695785,
        "meta_mean_motion_dot": 0.00069737,
        "meta_mean_motion_ddot": 0,
        "tle_line1": "1 34886U 93036ACZ 25347.89242337  .00069737  00000+0  17696-2 0  9991",
        "tle_line2": "2 34886  73.9501 178.4925 0030654   1.8054 358.3257 15.38859949630168"
      },
      "geometry": {
        "type": "Point",
        "coordinates": [
          -29.82356311108427,
          49.65154131727477
        ]
      }
    }
  ]
}